start=new Date('2022-01-01T00:00:00.000Z').valueOf();
sats=[{"EPOCH":"2021-12-31T12:39:46.056960","TIME_SYSTEM":"UTC","SEMIMAJOR_AXIS":"6925.395","TLE_LINE1":"1 45694U 20035AP  21365.52761640 -.00000454  00000-0 -11619-4 0  9993","GP_ID":"192818111","BSTAR":"-0.00001161900000","PERIOD":"95.593","MEAN_ANOMALY":"277.5113","REV_AT_EPOCH":"8838","COUNTRY_CODE":"US","OBJECT_ID":"2020-035AP","ELEMENT_SET_NO":"999","OBJECT_NAME":"STARLINK-1419","APOAPSIS":"548.109","NORAD_CAT_ID":"45694","MEAN_ELEMENT_THEORY":"SGP4","TLE_LINE2":"2 45694  53.0546  81.2906 0001227  82.6016 277.5113 15.06384990 88382","MEAN_MOTION_DOT":"-0.00000454","DECAY_DATE":null,"LAUNCH_DATE":"2020-06-04","FILE":"3255242","MEAN_MOTION":"15.06384990","CLASSIFICATION_TYPE":"U","MEAN_MOTION_DDOT":"0.0000000000000","ECCENTRICITY":"0.00012270","RCS_SIZE":"LARGE","EPHEMERIS_TYPE":"0","SITE":"AFETR","INCLINATION":"53.0546","OBJECT_TYPE":"PAYLOAD","REF_FRAME":"TEME","ARG_OF_PERICENTER":"82.6016","CENTER_NAME":"EARTH","PERIAPSIS":"546.410","RA_OF_ASC_NODE":"81.2906"},{"CENTER_NAME":"EARTH","RA_OF_ASC_NODE":"61.0169","PERIAPSIS":"546.323","SITE":"AFETR","INCLINATION":"53.0540","OBJECT_TYPE":"PAYLOAD","REF_FRAME":"TEME","ARG_OF_PERICENTER":"83.4271","EPHEMERIS_TYPE":"0","FILE":"3255242","MEAN_MOTION":"15.06399237","CLASSIFICATION_TYPE":"U","RCS_SIZE":"LARGE","ECCENTRICITY":"0.00012890","MEAN_MOTION_DDOT":"0.0000000000000","NORAD_CAT_ID":"45695","MEAN_ELEMENT_THEORY":"SGP4","TLE_LINE2":"2 45695  53.0540  61.0169 0001289  83.4271 276.6865 15.06399237 88681","DECAY_DATE":null,"MEAN_MOTION_DOT":"0.00000179","LAUNCH_DATE":"2020-06-04","OBJECT_ID":"2020-035AQ","COUNTRY_CODE":"US","ELEMENT_SET_NO":"999","APOAPSIS":"548.109","OBJECT_NAME":"STARLINK-1420","TLE_LINE1":"1 45695U 20035AQ  21365.58842114  .00000179  00000-0  30908-4 0  9990","GP_ID":"192818349","BSTAR":"0.00003090800000","SEMIMAJOR_AXIS":"6925.351","PERIOD":"95.592","REV_AT_EPOCH":"8868","MEAN_ANOMALY":"276.6865","EPOCH":"2021-12-31T14:07:19.586496","TIME_SYSTEM":"UTC"},{"MEAN_MOTION":"15.06383832","FILE":"3255242","MEAN_MOTION_DDOT":"0.0000000000000","ECCENTRICITY":"0.00013180","RCS_SIZE":"LARGE","CLASSIFICATION_TYPE":"U","EPHEMERIS_TYPE":"0","INCLINATION":"53.0546","SITE":"AFETR","ARG_OF_PERICENTER":"76.0344","REF_FRAME":"TEME","OBJECT_TYPE":"PAYLOAD","CENTER_NAME":"EARTH","RA_OF_ASC_NODE":"80.9778","PERIAPSIS":"546.350","EPOCH":"2021-12-31T14:20:36.708576","TIME_SYSTEM":"UTC","PERIOD":"95.593","SEMIMAJOR_AXIS":"6925.398","TLE_LINE1":"1 45696U 20035AR  21365.59764709 -.00000625  00000-0 -23059-4 0  9992","BSTAR":"-0.00002305900000","GP_ID":"192817110","MEAN_ANOMALY":"284.0791","REV_AT_EPOCH":"8839","ELEMENT_SET_NO":"999","COUNTRY_CODE":"US","OBJECT_ID":"2020-035AR","APOAPSIS":"548.176","OBJECT_NAME":"STARLINK-1422","NORAD_CAT_ID":"45696","DECAY_DATE":null,"LAUNCH_DATE":"2020-06-04","MEAN_MOTION_DOT":"-0.00000625","TLE_LINE2":"2 45696  53.0546  80.9778 0001318  76.0344 284.0791 15.06383832 88399","MEAN_ELEMENT_THEORY":"SGP4"},{"EPHEMERIS_TYPE":"0","RCS_SIZE":"LARGE","MEAN_MOTION_DDOT":"0.0000000000000","ECCENTRICITY":"0.00013150","CLASSIFICATION_TYPE":"U","MEAN_MOTION":"15.06385762","FILE":"3255242","PERIAPSIS":"546.347","RA_OF_ASC_NODE":"61.0879","CENTER_NAME":"EARTH","REF_FRAME":"TEME","ARG_OF_PERICENTER":"91.8684","OBJECT_TYPE":"PAYLOAD","INCLINATION":"53.0553","SITE":"AFETR","REV_AT_EPOCH":"8868","MEAN_ANOMALY":"268.2456","PERIOD":"95.593","GP_ID":"192817360","TLE_LINE1":"1 45697U 20035AS  21365.57368539 -.00000581  00000-0 -20147-4 0  9998","BSTAR":"-0.00002014700000","SEMIMAJOR_AXIS":"6925.392","TIME_SYSTEM":"UTC","EPOCH":"2021-12-31T13:46:06.417696","MEAN_MOTION_DOT":"-0.00000581","DECAY_DATE":null,"LAUNCH_DATE":"2020-06-04","MEAN_ELEMENT_THEORY":"SGP4","TLE_LINE2":"2 45697  53.0553  61.0879 0001315  91.8684 268.2456 15.06385762 88687","NORAD_CAT_ID":"45697","APOAPSIS":"548.168","OBJECT_NAME":"STARLINK-1351","ELEMENT_SET_NO":"999","OBJECT_ID":"2020-035AS","COUNTRY_CODE":"US"},{"TIME_SYSTEM":"UTC","EPOCH":"2021-12-31T10:19:06.212928","MEAN_ANOMALY":"264.3757","REV_AT_EPOCH":"8866","SEMIMAJOR_AXIS":"6925.371","TLE_LINE1":"1 45698U 20035AT  21365.42993302 -.00001133  00000-0 -57165-4 0  9999","BSTAR":"-0.00005716500000","GP_ID":"192817611","PERIOD":"95.593","APOAPSIS":"548.119","OBJECT_NAME":"STARLINK-1370","COUNTRY_CODE":"US","OBJECT_ID":"2020-035AT","ELEMENT_SET_NO":"999","TLE_LINE2":"2 45698  53.0551  61.7422 0001275  95.7377 264.3757 15.06392550 88666","MEAN_ELEMENT_THEORY":"SGP4","LAUNCH_DATE":"2020-06-04","DECAY_DATE":null,"MEAN_MOTION_DOT":"-0.00001133","NORAD_CAT_ID":"45698","CLASSIFICATION_TYPE":"U","MEAN_MOTION_DDOT":"0.0000000000000","ECCENTRICITY":"0.00012750","RCS_SIZE":"LARGE","FILE":"3255242","MEAN_MOTION":"15.06392550","EPHEMERIS_TYPE":"0","OBJECT_TYPE":"PAYLOAD","ARG_OF_PERICENTER":"95.7377","REF_FRAME":"TEME","SITE":"AFETR","INCLINATION":"53.0551","PERIAPSIS":"546.353","RA_OF_ASC_NODE":"61.7422","CENTER_NAME":"EARTH"},{"INCLINATION":"53.0559","SITE":"AFETR","ARG_OF_PERICENTER":"82.7391","REF_FRAME":"TEME","OBJECT_TYPE":"PAYLOAD","CENTER_NAME":"EARTH","RA_OF_ASC_NODE":"61.4800","PERIAPSIS":"546.255","MEAN_MOTION":"15.06400227","FILE":"3255242","ECCENTRICITY":"0.00013830","MEAN_MOTION_DDOT":"0.0000000000000","RCS_SIZE":"LARGE","CLASSIFICATION_TYPE":"U","EPHEMERIS_TYPE":"0","ELEMENT_SET_NO":"999","COUNTRY_CODE":"US","OBJECT_ID":"2020-035AU","OBJECT_NAME":"STARLINK-1398","APOAPSIS":"548.171","NORAD_CAT_ID":"45699","MEAN_MOTION_DOT":"0.00000643","DECAY_DATE":null,"LAUNCH_DATE":"2020-06-04","TLE_LINE2":"2 45699  53.0559  61.4800 0001383  82.7391 277.3755 15.06400227 88667","MEAN_ELEMENT_THEORY":"SGP4","EPOCH":"2021-12-31T11:38:42.685728","TIME_SYSTEM":"UTC","PERIOD":"95.592","SEMIMAJOR_AXIS":"6925.348","TLE_LINE1":"1 45699U 20035AU  21365.48521627  .00000643  00000-0  62047-4 0  9991","BSTAR":"0.00006204700000","GP_ID":"192817849","MEAN_ANOMALY":"277.3755","REV_AT_EPOCH":"8866"},{"PERIOD":"95.593","SEMIMAJOR_AXIS":"6925.386","BSTAR":"-0.00000094907000","TLE_LINE1":"1 45700U 20035AV  21365.54788474 -.00000295  00000-0 -94907-6 0  9993","GP_ID":"192816610","MEAN_ANOMALY":"252.0825","REV_AT_EPOCH":"8867","EPOCH":"2021-12-31T13:08:57.241536","TIME_SYSTEM":"UTC","NORAD_CAT_ID":"45700","LAUNCH_DATE":"2020-06-04","DECAY_DATE":null,"MEAN_MOTION_DOT":"-0.00000295","TLE_LINE2":"2 45700  53.0560  61.2149 0001122 108.0286 252.0825 15.06387872 88671","MEAN_ELEMENT_THEORY":"SGP4","ELEMENT_SET_NO":"999","COUNTRY_CODE":"US","OBJECT_ID":"2020-035AV","OBJECT_NAME":"STARLINK-1400","APOAPSIS":"548.028","EPHEMERIS_TYPE":"0","MEAN_MOTION":"15.06387872","FILE":"3255242","MEAN_MOTION_DDOT":"0.0000000000000","ECCENTRICITY":"0.00011220","RCS_SIZE":"LARGE","CLASSIFICATION_TYPE":"U","CENTER_NAME":"EARTH","RA_OF_ASC_NODE":"61.2149","PERIAPSIS":"546.474","INCLINATION":"53.0560","SITE":"AFETR","ARG_OF_PERICENTER":"108.0286","REF_FRAME":"TEME","OBJECT_TYPE":"PAYLOAD"},{"NORAD_CAT_ID":"45701","LAUNCH_DATE":"2020-06-04","DECAY_DATE":null,"MEAN_MOTION_DOT":"0.00001393","TLE_LINE2":"2 45701  53.0542  61.0608 0001308  82.2743 277.8394 15.06398990 88676","MEAN_ELEMENT_THEORY":"SGP4","ELEMENT_SET_NO":"999","OBJECT_ID":"2020-035AW","COUNTRY_CODE":"US","OBJECT_NAME":"STARLINK-1403","APOAPSIS":"548.122","PERIOD":"95.592","GP_ID":"192816860","TLE_LINE1":"1 45701U 20035AW  21365.57736285  .00001393  00000-0  11242-3 0  9996","BSTAR":"0.00011242000000","SEMIMAJOR_AXIS":"6925.352","REV_AT_EPOCH":"8867","MEAN_ANOMALY":"277.8394","EPOCH":"2021-12-31T13:51:24.150240","TIME_SYSTEM":"UTC","CENTER_NAME":"EARTH","PERIAPSIS":"546.311","RA_OF_ASC_NODE":"61.0608","INCLINATION":"53.0542","SITE":"AFETR","REF_FRAME":"TEME","ARG_OF_PERICENTER":"82.2743","OBJECT_TYPE":"PAYLOAD","EPHEMERIS_TYPE":"0","MEAN_MOTION":"15.06398990","FILE":"3255242","RCS_SIZE":"LARGE","ECCENTRICITY":"0.00013080","MEAN_MOTION_DDOT":"0.0000000000000","CLASSIFICATION_TYPE":"U"},{"MEAN_MOTION":"15.06395453","FILE":"3255242","ECCENTRICITY":"0.00012290","MEAN_MOTION_DDOT":"0.0000000000000","RCS_SIZE":"LARGE","CLASSIFICATION_TYPE":"U","EPHEMERIS_TYPE":"0","INCLINATION":"53.0549","SITE":"AFETR","REF_FRAME":"TEME","ARG_OF_PERICENTER":"82.2000","OBJECT_TYPE":"PAYLOAD","CENTER_NAME":"EARTH","PERIAPSIS":"546.376","RA_OF_ASC_NODE":"61.7474","EPOCH":"2021-12-31T10:13:47.760672","TIME_SYSTEM":"UTC","PERIOD":"95.592","SEMIMAJOR_AXIS":"6925.362","TLE_LINE1":"1 45702U 20035AX  21365.42624723 -.00000609  00000-0 -22028-4 0  9990","GP_ID":"192818112","BSTAR":"-0.00002202800000","MEAN_ANOMALY":"277.9128","REV_AT_EPOCH":"8865","ELEMENT_SET_NO":"999","COUNTRY_CODE":"US","OBJECT_ID":"2020-035AX","OBJECT_NAME":"STARLINK-1405","APOAPSIS":"548.079","NORAD_CAT_ID":"45702","DECAY_DATE":null,"MEAN_MOTION_DOT":"-0.00000609","LAUNCH_DATE":"2020-06-04","TLE_LINE2":"2 45702  53.0549  61.7474 0001229  82.2000 277.9128 15.06395453 88655","MEAN_ELEMENT_THEORY":"SGP4"},{"TIME_SYSTEM":"UTC","EPOCH":"2021-12-31T11:44:01.400640","MEAN_ANOMALY":"280.3280","REV_AT_EPOCH":"8866","PERIOD":"95.592","SEMIMAJOR_AXIS":"6925.361","TLE_LINE1":"1 45703U 20035AY  21365.48890510  .00000980  00000-0  84714-4 0  9996","GP_ID":"192818350","BSTAR":"0.00008471400000","OBJECT_NAME":"STARLINK-1407","APOAPSIS":"548.126","ELEMENT_SET_NO":"999","COUNTRY_CODE":"US","OBJECT_ID":"2020-035AY","LAUNCH_DATE":"2020-06-04","DECAY_DATE":null,"MEAN_MOTION_DOT":"0.00000980","MEAN_ELEMENT_THEORY":"SGP4","TLE_LINE2":"2 45703  53.0548  61.4762 0001299  79.7856 280.3280 15.06395832 88668","NORAD_CAT_ID":"45703","ECCENTRICITY":"0.00012990","MEAN_MOTION_DDOT":"0.0000000000000","RCS_SIZE":"LARGE","CLASSIFICATION_TYPE":"U","MEAN_MOTION":"15.06395832","FILE":"3255242","EPHEMERIS_TYPE":"0","REF_FRAME":"TEME","ARG_OF_PERICENTER":"79.7856","OBJECT_TYPE":"PAYLOAD","INCLINATION":"53.0548","SITE":"AFETR","RA_OF_ASC_NODE":"61.4762","PERIAPSIS":"546.327","CENTER_NAME":"EARTH"}];
